#dP2022  9  9 18  0  0.00000000      96 __u+U ITR00 EXT  IAC
## 2226 496800.00000000   900.00000000 59831 0.7500000000000
+  115   C06C07C08C09C10C11C12C13C14C16C19C20C21C22C23C24C25
+        C26C27C28C29C30C32C33C34C35C36C37C38C39C40C41C42C43
+        C44C45C46E01E02E03E04E05E07E08E09E10E11E12E13E14E15
+        E18E19E21E24E25E26E27E30E31E33E34E36G01G02G03G04G05
+        G06G07G08G09G10G11G12G13G14G15G16G17G18G19G20G21G22
+        G24G25G27G28G29G30G31G32J02J03R01R02R03R04R05R07R08
+        R09R11R12R13R14R15R17R18R19R20R21R24R25  0  0  0  0
++         8 10 10  8  8 11 10  8  9  8  8  9  9  9  8  9  8
++         9  9  8 10  8  7  9 10  9  8  7  9  9  9  8  9  9
++         8  8 10  7  7  8  8  9  8  7  9  9  7  6  8 10  7
++         9  7  8  6  7  6  9  7  9  6  8  7  7  7  6  6  7
++         6  8  7  8  5  7  8  9  7  8  7  8  7  8  7  8  8
++         7  7  6  8  8  7  5  7 10 10  8  7  7  7  9  9  9
++         7  8  8  6  9  9  7  9  7  9  8  7 10  0  0  0  0
%c M  cc GPS ccc cccc cccc cccc cccc ccccc ccccc ccccc ccccc
%c cc cc ccc ccc cccc cccc cccc cccc ccccc ccccc ccccc ccccc
%f  0.0000000  0.000000000  0.00000000000  0.000000000000000
%f  0.0000000  0.000000000  0.00000000000  0.000000000000000
%i    0    0    0    0      0      0      0      0         0
%i    0    0    0    0      0      0      0      0         0
/* IAC                                ULTRA-RAPID PREDICTION
/* S/V CLOCKS ARE ALIGNED TO GNSS TIME                      
/* G:C1WC2W R:C1PC2P E:C1XC5X C:C2IC6I J:C1CC2S             
/* PCV:IGS14_2218 OL/AL:FES2004  NONE     YN ORB:CoN CLK:CoN
*  2022 09 10  9 30  0.00000000
PC06  -1997.453321  28765.686429  30852.647426    805.950131
PC07 -17676.241357  29665.429120 -24247.597969   -121.508825
PC08 -10648.258844  40485.494992  -4084.436025    467.242965
PC09   6109.349923  33121.025005  26050.213468   -868.111894
PC10 -10392.874384  29848.758642 -27820.973706     98.488704
PC11 -13496.309849   8418.725466 -22868.672245   -417.543222
PC12 -23397.581301  -7211.090020 -13377.738886   -523.232805
PC13  -5412.738255  41549.963587   3147.292800     76.584966
PC14 -22228.717273  15118.458602   7603.940342    643.219902
PC16  -5305.824664  26303.755377  32774.632419    138.665700
PC19  14605.863395 -17853.834945 -15677.010457   -622.413510
PC20  25681.461576 -10881.841394    -17.314728    530.036222
PC21 -22079.566056  -3176.935780 -16772.578588   -365.660970
PC22  -5441.421232 -14833.800568 -23009.870160   -558.213219
PC23   3687.437909  25907.682726  -9675.334540     -7.444867
PC24 -16253.604905   9083.319029  20776.253064    -74.443744
PC25  -7770.496877  25845.149596   7052.973623   -680.323349
PC26 -14519.054363 -10116.955379  21576.442959     -5.482631
PC27  23692.623935  13711.065171   5421.235849     18.676776
PC28  14285.687606  21103.318593 -11357.690879     11.307661
PC29   3843.249585 -16317.227792  22303.950968     11.587958
PC30  20231.134522  -1820.385536  19134.077034    502.828831
PC32  22028.592868   3107.298096  16849.141338   -810.533303
PC33 -14605.913181  17957.345698  15594.057167   -626.410443
PC34 -19559.023712   2823.434696 -19708.901497   -316.789749
PC35 -13865.818645 -20743.387410  12462.536300    452.279340
PC36   8686.931525 -25417.762977  -7546.444863   -138.392969
PC37  13834.887054  11742.408741 -21173.700830   -150.155796
PC38 -14536.898290  37735.690140 -11586.828108     23.238881
PC39  -9459.479861  22913.590542  34148.296219     -0.412049
PC40 -24851.226317  23783.190588 -24524.855248     -3.888944
PC41   4907.278418  15110.333808  22985.826976    -65.315567
PC42 -25940.614791  10257.373456  -1059.810256   -269.322681
PC43  -4715.318760  15986.558083 -22392.752961     13.446722
PC44 -24157.633916 -12922.732481  -5249.593982     45.504363
PC45  -3881.315335 -25761.207272  10041.214075    857.267958
PC46  15882.276508 -11023.173237 -20129.793718   -533.551051
PE01  13994.036690   9149.491662 -24416.580089   -525.270971
PE02 -14115.907051  -8993.573133  24418.507784    323.811483
PE03 -25811.640848 -10479.175583 -10030.535259   -598.396434
PE04  28367.595240  -2113.191216  -8183.359056  -1112.355214
PE05  -8002.613895 -17180.826240 -22738.518188   -145.376835
PE07 -14172.915166  13790.272744  22030.205005   -704.164154
PE08 -28331.727863   2209.019869   8301.694219   -596.315871
PE09  14199.456218 -13664.135970 -22084.780450   -653.475883
PE10  12250.935550 -11382.564984  24414.112028   -475.836903
PE11   5446.331426 -20893.677948  20232.683550   2282.264752
PE12  16818.815967   -733.787014  24340.568348   -161.445911
PE13  -5923.921235  20269.735621 -20741.360796    430.548437
PE14  11119.803898  19072.774931 -18315.398560  -1724.351955
PE15 -16820.363759    512.396163 -24351.398097    721.338317
PE18 -25577.796415 -12676.052464   5529.779427   -993.164053
PE19  24195.391887  11827.902708  12287.413923  -4570.428338
PE21  -1179.999279  22730.391081 -18916.088412   -756.889274
PE24  17470.387709 -23877.914516   1209.859371   -828.906494
PE25   1429.656002 -22870.288252  18751.444451   -587.264400
PE26   8839.351818  27943.714350  -4097.579811  -1596.265061
PE27 -16770.682385  24284.671816  -2214.850809   -388.678436
PE30 -22346.897017  10651.812724  16217.982909   -825.055495
PE31  22334.869192 -11557.357228 -15599.053284   -503.260558
PE33  17729.061364  19425.211408  13579.076463   -453.596962
PE34 -17817.733714 -19253.182335 -13739.460497     -3.784743
PE36  -8351.125151 -27957.221382   4991.056961   -429.358210
PG01  14833.149254   -330.692397  21751.903949    286.451487
PG02 -16828.469649  -9175.814145 -17696.829921   -646.521174
PG03  20747.571029  -8327.228095  14129.375763   -348.536834
PG04  25080.393839    189.672570  -8886.210621   -120.842340
PG05 -16391.112274  -3161.826394 -20865.815914    -96.131579
PG06  -6411.293809 -25660.382984   2024.783206    455.977546
PG07   8493.265987 -16688.613339 -18221.847671    308.691757
PG08  26150.041366   5643.948948   -492.557157    -84.028444
PG09  17920.608855  -8974.073690 -17525.748166   -297.880460
PG10  -8315.640663  21734.225169  12661.176442     -2.656371
PG11 -12172.759644 -21712.924706  -9313.451846    -15.512315
PG12 -21118.819427   6031.706308  14596.778866   -276.047173
PG13 -21865.983282 -13502.317759  -7245.996508    384.741678
PG14  10586.077257 -21710.546892  10928.987774   -104.537299
PG15 -26536.908227  -3113.042784   -926.833271    -30.195103
PG16  11551.451892  10008.356408 -22016.649009   -523.680919
PG17   3447.805481 -14659.146744  22314.649701    657.676809
PG18  -7800.609437  17648.395112 -18200.184118     53.370257
PG19  -8045.734617 -16404.173438  19127.238303    208.775471
PG20  -7234.901992 -15634.332820 -20264.097374    487.612909
PG21  17659.066553   8741.391059  18755.201932    159.612399
PG22  10615.089407  16675.246906  18243.379061    325.266334
PG24 -17146.325652  -3434.793432  19782.033818    140.413781
PG25 -19805.416442  16711.105391   4826.978932    370.453935
PG27  20421.827921  12832.636234 -11772.489643    212.962117
PG28   2973.760515 -19624.206408  18271.329627    338.973396
PG29 -19038.947958   6404.041395 -17464.786207   -550.352967
PG30    872.496497 -24229.727512 -10452.945140   -536.849908
PG31   7069.519263  25334.825485    226.902723   -192.833040
PG32    667.584515  15661.030704  21608.974809   -228.995349
PJ02 -34289.540466  24288.317115   8727.869185     -4.739170
PJ03 -22027.693065  19717.481676 -25484.191744     -1.451702
PR01  17245.381520 -11526.623319 -14844.282936     14.522820
PR02  -1957.661753 -10660.819318 -23053.418139    -22.627265
PR03 -18938.905951  -3900.491744 -16563.401195     63.442259
PR04 -25018.516226   4828.150844  -1004.184216    157.058477
PR05 -17425.939421  10858.195317  15123.374219     99.385256
PR07  19533.000013   3555.305698  16079.534008     40.743365
PR08  25024.546734  -4941.868788    984.315612    -67.115880
PR09  -1241.351838  23125.651512 -10758.235542     75.933714
PR11  12577.212587  -7357.903032 -20917.081488     27.885929
PR12  10355.020010 -22306.022468  -6771.330236     21.085318
PR13   2298.248936 -23552.565750   9512.048492    -26.644223
PR14  -7963.683436 -10320.307785  21939.758002     24.287057
PR15 -12880.035822   8196.684222  20461.895578     93.789546
PR17 -18389.078263 -16969.328600  -5080.457835    559.896186
PR18 -16064.483541  -5232.623397 -19081.485223     41.716907
PR19  -6662.447306   8096.112225 -23255.107997   -203.175714
PR20   9220.439327  19971.438501 -12936.711916    -78.126551
PR21  18477.848575  16241.188256   6670.687062   -332.555799
PR24 -10028.239872 -20012.099931  12270.391125    113.767823
PR25  15864.937376   5031.799896  19357.176021     13.012001
EOF
